<?xml version="1.0" encoding="UTF-8"?>
<ndm xmlns:xsi="http://www.w3.org/2001/XMLSchema-instance" xsi:noNamespaceSchemaLocation="https://sanaregistry.org/r/ndmxml_unqualified/ndmxml-2.0.0-master-2.0.xsd">
<omm id="CCSDS_OMM_VERS" version="2.0">
<header><CREATION_DATE/><ORIGINATOR/></header><body><segment><metadata><OBJECT_NAME>ORBCOMM FM05 [-]</OBJECT_NAME><OBJECT_ID>1997-084F</OBJECT_ID><CENTER_NAME>EARTH</CENTER_NAME><REF_FRAME>TEME</REF_FRAME><TIME_SYSTEM>UTC</TIME_SYSTEM><MEAN_ELEMENT_THEORY>SGP4</MEAN_ELEMENT_THEORY></metadata><data><meanElements><EPOCH>2023-10-01T22:00:41.529312</EPOCH><MEAN_MOTION>14.41449068</MEAN_MOTION><ECCENTRICITY>.0002234</ECCENTRICITY><INCLINATION>45.0144</INCLINATION><RA_OF_ASC_NODE>113.9322</RA_OF_ASC_NODE><ARG_OF_PERICENTER>337.1904</ARG_OF_PERICENTER><MEAN_ANOMALY>22.8847</MEAN_ANOMALY></meanElements><tleParameters><EPHEMERIS_TYPE>0</EPHEMERIS_TYPE><CLASSIFICATION_TYPE>U</CLASSIFICATION_TYPE><NORAD_CAT_ID>25117</NORAD_CAT_ID><ELEMENT_SET_NO>999</ELEMENT_SET_NO><REV_AT_EPOCH>35040</REV_AT_EPOCH><BSTAR>.81881E-3</BSTAR><MEAN_MOTION_DOT>.2538E-4</MEAN_MOTION_DOT><MEAN_MOTION_DDOT>0</MEAN_MOTION_DDOT></tleParameters></data></segment></body></omm>
<omm id="CCSDS_OMM_VERS" version="2.0">
<header><CREATION_DATE/><ORIGINATOR/></header><body><segment><metadata><OBJECT_NAME>ORBCOMM FM06 [+]</OBJECT_NAME><OBJECT_ID>1997-084G</OBJECT_ID><CENTER_NAME>EARTH</CENTER_NAME><REF_FRAME>TEME</REF_FRAME><TIME_SYSTEM>UTC</TIME_SYSTEM><MEAN_ELEMENT_THEORY>SGP4</MEAN_ELEMENT_THEORY></metadata><data><meanElements><EPOCH>2023-10-01T21:01:57.702720</EPOCH><MEAN_MOTION>14.41387474</MEAN_MOTION><ECCENTRICITY>.0001525</ECCENTRICITY><INCLINATION>45.0137</INCLINATION><RA_OF_ASC_NODE>114.2795</RA_OF_ASC_NODE><ARG_OF_PERICENTER>358.6211</ARG_OF_PERICENTER><MEAN_ANOMALY>16.0044</MEAN_ANOMALY></meanElements><tleParameters><EPHEMERIS_TYPE>0</EPHEMERIS_TYPE><CLASSIFICATION_TYPE>U</CLASSIFICATION_TYPE><NORAD_CAT_ID>25118</NORAD_CAT_ID><ELEMENT_SET_NO>999</ELEMENT_SET_NO><REV_AT_EPOCH>35133</REV_AT_EPOCH><BSTAR>.8808E-3</BSTAR><MEAN_MOTION_DOT>.2738E-4</MEAN_MOTION_DOT><MEAN_MOTION_DDOT>0</MEAN_MOTION_DDOT></tleParameters></data></segment></body></omm>
<omm id="CCSDS_OMM_VERS" version="2.0">
<header><CREATION_DATE/><ORIGINATOR/></header><body><segment><metadata><OBJECT_NAME>ORBCOMM FM07 [-]</OBJECT_NAME><OBJECT_ID>1997-084H</OBJECT_ID><CENTER_NAME>EARTH</CENTER_NAME><REF_FRAME>TEME</REF_FRAME><TIME_SYSTEM>UTC</TIME_SYSTEM><MEAN_ELEMENT_THEORY>SGP4</MEAN_ELEMENT_THEORY></metadata><data><meanElements><EPOCH>2023-10-01T20:30:49.537728</EPOCH><MEAN_MOTION>14.41333579</MEAN_MOTION><ECCENTRICITY>.0002695</ECCENTRICITY><INCLINATION>45.0131</INCLINATION><RA_OF_ASC_NODE>114.8167</RA_OF_ASC_NODE><ARG_OF_PERICENTER>319.2609</ARG_OF_PERICENTER><MEAN_ANOMALY>40.8039</MEAN_ANOMALY></meanElements><tleParameters><EPHEMERIS_TYPE>0</EPHEMERIS_TYPE><CLASSIFICATION_TYPE>U</CLASSIFICATION_TYPE><NORAD_CAT_ID>25119</NORAD_CAT_ID><ELEMENT_SET_NO>999</ELEMENT_SET_NO><REV_AT_EPOCH>35130</REV_AT_EPOCH><BSTAR>.81341E-3</BSTAR><MEAN_MOTION_DOT>.2515E-4</MEAN_MOTION_DOT><MEAN_MOTION_DDOT>0</MEAN_MOTION_DDOT></tleParameters></data></segment></body></omm>
<omm id="CCSDS_OMM_VERS" version="2.0">
<header><CREATION_DATE/><ORIGINATOR/></header><body><segment><metadata><OBJECT_NAME>ORBCOMM FM03 [-]</OBJECT_NAME><OBJECT_ID>1998-007B</OBJECT_ID><CENTER_NAME>EARTH</CENTER_NAME><REF_FRAME>TEME</REF_FRAME><TIME_SYSTEM>UTC</TIME_SYSTEM><MEAN_ELEMENT_THEORY>SGP4</MEAN_ELEMENT_THEORY></metadata><data><meanElements><EPOCH>2023-10-02T00:48:44.577792</EPOCH><MEAN_MOTION>14.31301368</MEAN_MOTION><ECCENTRICITY>.0049824</ECCENTRICITY><INCLINATION>107.9828</INCLINATION><RA_OF_ASC_NODE>296.5733</RA_OF_ASC_NODE><ARG_OF_PERICENTER>258.0286</ARG_OF_PERICENTER><MEAN_ANOMALY>101.5264</MEAN_ANOMALY></meanElements><tleParameters><EPHEMERIS_TYPE>0</EPHEMERIS_TYPE><CLASSIFICATION_TYPE>U</CLASSIFICATION_TYPE><NORAD_CAT_ID>25158</NORAD_CAT_ID><ELEMENT_SET_NO>999</ELEMENT_SET_NO><REV_AT_EPOCH>33478</REV_AT_EPOCH><BSTAR>.65514E-3</BSTAR><MEAN_MOTION_DOT>.1629E-4</MEAN_MOTION_DOT><MEAN_MOTION_DDOT>0</MEAN_MOTION_DDOT></tleParameters></data></segment></body></omm>
<omm id="CCSDS_OMM_VERS" version="2.0">
<header><CREATION_DATE/><ORIGINATOR/></header><body><segment><metadata><OBJECT_NAME>ORBCOMM FM04 [+]</OBJECT_NAME><OBJECT_ID>1998-007C</OBJECT_ID><CENTER_NAME>EARTH</CENTER_NAME><REF_FRAME>TEME</REF_FRAME><TIME_SYSTEM>UTC</TIME_SYSTEM><MEAN_ELEMENT_THEORY>SGP4</MEAN_ELEMENT_THEORY></metadata><data><meanElements><EPOCH>2023-10-01T22:09:09.652896</EPOCH><MEAN_MOTION>14.31574693</MEAN_MOTION><ECCENTRICITY>.0045326</ECCENTRICITY><INCLINATION>107.9807</INCLINATION><RA_OF_ASC_NODE>299.1355</RA_OF_ASC_NODE><ARG_OF_PERICENTER>256.3178</ARG_OF_PERICENTER><MEAN_ANOMALY>103.2911</MEAN_ANOMALY></meanElements><tleParameters><EPHEMERIS_TYPE>0</EPHEMERIS_TYPE><CLASSIFICATION_TYPE>U</CLASSIFICATION_TYPE><NORAD_CAT_ID>25159</NORAD_CAT_ID><ELEMENT_SET_NO>999</ELEMENT_SET_NO><REV_AT_EPOCH>33479</REV_AT_EPOCH><BSTAR>.64384E-3</BSTAR><MEAN_MOTION_DOT>.1604E-4</MEAN_MOTION_DOT><MEAN_MOTION_DDOT>0</MEAN_MOTION_DDOT></tleParameters></data></segment></body></omm>
<omm id="CCSDS_OMM_VERS" version="2.0">
<header><CREATION_DATE/><ORIGINATOR/></header><body><segment><metadata><OBJECT_NAME>ORBCOMM FM17 [-]</OBJECT_NAME><OBJECT_ID>1998-046A</OBJECT_ID><CENTER_NAME>EARTH</CENTER_NAME><REF_FRAME>TEME</REF_FRAME><TIME_SYSTEM>UTC</TIME_SYSTEM><MEAN_ELEMENT_THEORY>SGP4</MEAN_ELEMENT_THEORY></metadata><data><meanElements><EPOCH>2023-10-02T02:26:05.748288</EPOCH><MEAN_MOTION>14.32357487</MEAN_MOTION><ECCENTRICITY>.0003392</ECCENTRICITY><INCLINATION>44.9958</INCLINATION><RA_OF_ASC_NODE>316.1197</RA_OF_ASC_NODE><ARG_OF_PERICENTER>290.8388</ARG_OF_PERICENTER><MEAN_ANOMALY>69.2094</MEAN_ANOMALY></meanElements><tleParameters><EPHEMERIS_TYPE>0</EPHEMERIS_TYPE><CLASSIFICATION_TYPE>U</CLASSIFICATION_TYPE><NORAD_CAT_ID>25413</NORAD_CAT_ID><ELEMENT_SET_NO>999</ELEMENT_SET_NO><REV_AT_EPOCH>31378</REV_AT_EPOCH><BSTAR>.564E-3</BSTAR><MEAN_MOTION_DOT>.1398E-4</MEAN_MOTION_DOT><MEAN_MOTION_DDOT>0</MEAN_MOTION_DDOT></tleParameters></data></segment></body></omm>
<omm id="CCSDS_OMM_VERS" version="2.0">
<header><CREATION_DATE/><ORIGINATOR/></header><body><segment><metadata><OBJECT_NAME>ORBCOMM FM18 [-]</OBJECT_NAME><OBJECT_ID>1998-046B</OBJECT_ID><CENTER_NAME>EARTH</CENTER_NAME><REF_FRAME>TEME</REF_FRAME><TIME_SYSTEM>UTC</TIME_SYSTEM><MEAN_ELEMENT_THEORY>SGP4</MEAN_ELEMENT_THEORY></metadata><data><meanElements><EPOCH>2023-10-02T00:20:33.421344</EPOCH><MEAN_MOTION>14.34849637</MEAN_MOTION><ECCENTRICITY>.0004821</ECCENTRICITY><INCLINATION>44.9930</INCLINATION><RA_OF_ASC_NODE>248.0959</RA_OF_ASC_NODE><ARG_OF_PERICENTER>356.9620</ARG_OF_PERICENTER><MEAN_ANOMALY>3.1197</MEAN_ANOMALY></meanElements><tleParameters><EPHEMERIS_TYPE>0</EPHEMERIS_TYPE><CLASSIFICATION_TYPE>U</CLASSIFICATION_TYPE><NORAD_CAT_ID>25414</NORAD_CAT_ID><ELEMENT_SET_NO>999</ELEMENT_SET_NO><REV_AT_EPOCH>31466</REV_AT_EPOCH><BSTAR>.95408E-3</BSTAR><MEAN_MOTION_DOT>.2594E-4</MEAN_MOTION_DOT><MEAN_MOTION_DDOT>0</MEAN_MOTION_DDOT></tleParameters></data></segment></body></omm>
<omm id="CCSDS_OMM_VERS" version="2.0">
<header><CREATION_DATE/><ORIGINATOR/></header><body><segment><metadata><OBJECT_NAME>ORBCOMM FM19 [+]</OBJECT_NAME><OBJECT_ID>1998-046C</OBJECT_ID><CENTER_NAME>EARTH</CENTER_NAME><REF_FRAME>TEME</REF_FRAME><TIME_SYSTEM>UTC</TIME_SYSTEM><MEAN_ELEMENT_THEORY>SGP4</MEAN_ELEMENT_THEORY></metadata><data><meanElements><EPOCH>2023-10-01T23:05:55.794912</EPOCH><MEAN_MOTION>14.34727108</MEAN_MOTION><ECCENTRICITY>.0004115</ECCENTRICITY><INCLINATION>44.9939</INCLINATION><RA_OF_ASC_NODE>249.4776</RA_OF_ASC_NODE><ARG_OF_PERICENTER>342.6203</ARG_OF_PERICENTER><MEAN_ANOMALY>46.2034</MEAN_ANOMALY></meanElements><tleParameters><EPHEMERIS_TYPE>0</EPHEMERIS_TYPE><CLASSIFICATION_TYPE>U</CLASSIFICATION_TYPE><NORAD_CAT_ID>25415</NORAD_CAT_ID><ELEMENT_SET_NO>999</ELEMENT_SET_NO><REV_AT_EPOCH>31445</REV_AT_EPOCH><BSTAR>.96273E-3</BSTAR><MEAN_MOTION_DOT>.2612E-4</MEAN_MOTION_DOT><MEAN_MOTION_DDOT>0</MEAN_MOTION_DDOT></tleParameters></data></segment></body></omm>

</ndm>
