ORBCOMM FM05 [-]        
1 25117U 97084F   23274.91714733  .00002538  00000+0  81881-3 0  9993
2 25117  45.0144 113.9322 0002234 337.1904  22.8847 14.41449068350409
ORBCOMM FM06 [+]        
1 25118U 97084G   23274.87636230  .00002738  00000+0  88080-3 0  9994
2 25118  45.0137 114.2795 0001525 358.6211  16.0044 14.41387474351330
ORBCOMM FM07 [-]        
1 25119U 97084H   23274.85474002  .00002515  00000+0  81341-3 0  9996
2 25119  45.0131 114.8167 0002695 319.2609  40.8039 14.41333579351300
ORBCOMM FM03 [-]        
1 25158U 98007B   23275.03384928  .00001629  00000+0  65514-3 0  9992
2 25158 107.9828 296.5733 0049824 258.0286 101.5264 14.31301368334785
ORBCOMM FM04 [+]        
1 25159U 98007C   23274.92302839  .00001604  00000+0  64384-3 0  9998
2 25159 107.9807 299.1355 0045326 256.3178 103.2911 14.31574693334798
ORBCOMM FM17 [-]        
1 25413U 98046A   23275.10145542  .00001398  00000+0  56400-3 0  9991
2 25413  44.9958 316.1197 0003392 290.8388  69.2094 14.32357487313785
ORBCOMM FM18 [-]        
1 25414U 98046B   23275.01427571  .00002594  00000+0  95408-3 0  9997
2 25414  44.9930 248.0959 0004821 356.9620   3.1197 14.34849637314660
ORBCOMM FM19 [+]        
1 25415U 98046C   23274.96245133  .00002612  00000+0  96273-3 0  9995
2 25415  44.9939 249.4776 0004115 342.6203  46.2034 14.34727108314450
